ALOS-2                  
1 39766U 14029A   26068.58355716  .00002893  00000+0  39377-3 0  9992
2 39766  97.9193 167.1823 0001502  96.2832 263.8550 14.79506051636852
YAOGAN-29               
1 41038U 15069A   26068.59206185  .00000679  00000+0  90201-4 0  9992
2 41038  98.0143  97.0213 0001970  36.7742 323.3606 14.82996667555861
ASTRO-H (HITOMI)        
1 41337U 16012A   26068.17138105  .00004351  00000+0  25537-3 0  9993
2 41337  31.0008 359.8923 0009877 325.8962  34.1041 15.10001629552153
HXMT (HUIYAN)           
1 42758U 17034A   26068.31688038  .00008037  00000+0  40010-3 0  9995
2 42758  43.0156  18.7458 0032871 233.7115 126.0696 15.17457910482489
SAOCOM 1A               
1 43641U 18076A   26068.62544542  .00001196  00000+0  15670-3 0  9992
2 43641  97.8893 256.7987 0001328  85.6171 274.5194 14.82172440401358
H-2A R/B                
1 43682U 18084L   26068.60301081  .00020990  00000+0  49941-3 0  9994
2 43682  98.8729 285.9721 0025468  25.6211 334.6287 15.41344491405765
SAOCOM 1B               
1 46265U 20059A   26065.95626301  .00001349  00000+0  17595-3 0  9996
2 46265  97.8885 253.2654 0001504  81.2285 278.9098 14.82173062298346
CSS (TIANHE)            
1 48274U 21035A   26068.58759434  .00025302  00000+0  29943-3 0  9994
2 48274  41.4666 208.7841 0006982 272.7102  87.2938 15.60651211277595
COSMOS 2550             
1 48865U 21056A   26067.47400841 -.00000192  00000+0 -13338-7 0  9992
2 48865  67.1451  44.6088 0008369 269.6014  90.4182 15.33829151263273
CZ-2C R/B               
1 52794U 22058K   26068.12659810  .00042727  00000+0  62256-3 0  9993
2 52794  50.1894 321.1865 0042159 198.4704 161.4738 15.54191438210044
CZ-2C R/B               
1 54039U 22132E   26068.56386821  .00039978  00000+0  45659-3 0  9999
2 54039  97.2972  71.8768 0020631  91.8631 268.4991 15.61827128190354
GSLV R/B                
1 54149U 22138AN  26068.31969013  .00003699  00000+0  31939-3 0  9997
2 54149  87.3875 166.4861 0022973 148.0085 212.2547 14.96770932183872
